[{"OBJECT_NAME":"ONEWEB-0500","OBJECT_ID":"2022-138F","EPOCH":"2026-03-09T17:46:05.166912","MEAN_MOTION":13.19725513,"ECCENTRICITY":0.00018002,"INCLINATION":87.923,"RA_OF_ASC_NODE":324.777,"ARG_OF_PERICENTER":78.6311,"MEAN_ANOMALY":281.5024,"EPHEMERIS_TYPE":0,"CLASSIFICATION_TYPE":"U","NORAD_CAT_ID":54118,"ELEMENT_SET_NO":999,"REV_AT_EPOCH":16371,"BSTAR":-0.00035714694,"MEAN_MOTION_DOT":-1.3e-6,"MEAN_MOTION_DDOT":0},{"OBJECT_NAME":"THOR ABLESTAR DEB","OBJECT_ID":"1961-015HX","EPOCH":"2026-03-09T13:56:42.962784","MEAN_MOTION":13.57541426,"ECCENTRICITY":0.031198,"INCLINATION":66.987,"RA_OF_ASC_NODE":151.2014,"ARG_OF_PERICENTER":150.8521,"MEAN_ANOMALY":211.0365,"EPHEMERIS_TYPE":0,"CLASSIFICATION_TYPE":"U","NORAD_CAT_ID":3124,"ELEMENT_SET_NO":999,"REV_AT_EPOCH":15562,"BSTAR":0.0024494,"MEAN_MOTION_DOT":2.344e-5,"MEAN_MOTION_DDOT":0}]
